{"fetched_at":"2026-07-16T06:43:01.746Z","source":"https://celestrak.org/NORAD/elements/gp.php?NAME=ICEYE&FORMAT=JSON","constellation":"iceye","records":[{"OBJECT_NAME":"ICEYE-X53","OBJECT_ID":"2025-135BJ","EPOCH":"2026-07-15T21:24:13.902912","CLASSIFICATION_TYPE":"U","MEAN_MOTION":15.00894045,"ECCENTRICITY":0.00019519,"INCLINATION":97.736,"RA_OF_ASC_NODE":313.5473,"ARG_OF_PERICENTER":165.3135,"MEAN_ANOMALY":194.8146,"EPHEMERIS_TYPE":0,"NORAD_CAT_ID":64584,"ELEMENT_SET_NO":999,"REV_AT_EPOCH":5838,"BSTAR":0.00011001009,"MEAN_MOTION_DOT":0.0000134,"MEAN_MOTION_DDOT":0},{"OBJECT_NAME":"ICEYE-X65","OBJECT_ID":"2025-248H","EPOCH":"2026-07-15T18:28:03.789120","CLASSIFICATION_TYPE":"U","MEAN_MOTION":15.0793045,"ECCENTRICITY":0.00055776,"INCLINATION":45.4058,"RA_OF_ASC_NODE":343.8797,"ARG_OF_PERICENTER":202.3635,"MEAN_ANOMALY":157.7004,"EPHEMERIS_TYPE":0,"NORAD_CAT_ID":66300,"ELEMENT_SET_NO":999,"REV_AT_EPOCH":3983,"BSTAR":0.00011438186,"MEAN_MOTION_DOT":0.00001535,"MEAN_MOTION_DDOT":0},{"OBJECT_NAME":"ICEYE-X66","OBJECT_ID":"2025-248J","EPOCH":"2026-07-15T18:24:03.565152","CLASSIFICATION_TYPE":"U","MEAN_MOTION":15.09179173,"ECCENTRICITY":0.00052416,"INCLINATION":45.4025,"RA_OF_ASC_NODE":342.9691,"ARG_OF_PERICENTER":198.2073,"MEAN_ANOMALY":161.8622,"EPHEMERIS_TYPE":0,"NORAD_CAT_ID":66301,"ELEMENT_SET_NO":999,"REV_AT_EPOCH":3982,"BSTAR":0.00011377776,"MEAN_MOTION_DOT":0.00001585,"MEAN_MOTION_DDOT":0},{"OBJECT_NAME":"ICEYE-X67","OBJECT_ID":"2025-248K","EPOCH":"2026-07-15T11:03:00.631008","CLASSIFICATION_TYPE":"U","MEAN_MOTION":15.09160092,"ECCENTRICITY":0.00067019,"INCLINATION":45.4062,"RA_OF_ASC_NODE":344.1616,"ARG_OF_PERICENTER":196.7791,"MEAN_ANOMALY":163.287,"EPHEMERIS_TYPE":0,"NORAD_CAT_ID":66302,"ELEMENT_SET_NO":999,"REV_AT_EPOCH":3979,"BSTAR":0.00011472422,"MEAN_MOTION_DOT":0.00001599,"MEAN_MOTION_DDOT":0},{"OBJECT_NAME":"ICEYE-X58","OBJECT_ID":"2025-276CP","EPOCH":"2026-07-15T22:32:10.057920","CLASSIFICATION_TYPE":"U","MEAN_MOTION":15.1730892,"ECCENTRICITY":0.00022168,"INCLINATION":97.4197,"RA_OF_ASC_NODE":269.8023,"ARG_OF_PERICENTER":209.5167,"MEAN_ANOMALY":150.5942,"EPHEMERIS_TYPE":0,"NORAD_CAT_ID":66751,"ELEMENT_SET_NO":999,"REV_AT_EPOCH":3477,"BSTAR":0.000071986919,"MEAN_MOTION_DOT":0.00001369,"MEAN_MOTION_DDOT":0},{"OBJECT_NAME":"ICEYE-X59","OBJECT_ID":"2025-276CQ","EPOCH":"2026-07-15T17:54:03.307968","CLASSIFICATION_TYPE":"U","MEAN_MOTION":15.00756471,"ECCENTRICITY":0.00010832,"INCLINATION":97.4391,"RA_OF_ASC_NODE":266.8227,"ARG_OF_PERICENTER":139.6643,"MEAN_ANOMALY":220.4663,"EPHEMERIS_TYPE":0,"NORAD_CAT_ID":66752,"ELEMENT_SET_NO":999,"REV_AT_EPOCH":3455,"BSTAR":0.00022179553,"MEAN_MOTION_DOT":0.00002757,"MEAN_MOTION_DDOT":0},{"OBJECT_NAME":"ICEYE-X60","OBJECT_ID":"2025-276CR","EPOCH":"2026-07-15T04:47:26.729088","CLASSIFICATION_TYPE":"U","MEAN_MOTION":15.1081204,"ECCENTRICITY":0.0000961,"INCLINATION":97.4235,"RA_OF_ASC_NODE":268.0436,"ARG_OF_PERICENTER":224.6352,"MEAN_ANOMALY":135.4801,"EPHEMERIS_TYPE":0,"NORAD_CAT_ID":66753,"ELEMENT_SET_NO":999,"REV_AT_EPOCH":3459,"BSTAR":0.00016749,"MEAN_MOTION_DOT":0.0000272,"MEAN_MOTION_DDOT":0},{"OBJECT_NAME":"ICEYE-X61","OBJECT_ID":"2025-276CS","EPOCH":"2026-07-15T18:12:46.658304","CLASSIFICATION_TYPE":"U","MEAN_MOTION":15.18610595,"ECCENTRICITY":0.00021326,"INCLINATION":97.4194,"RA_OF_ASC_NODE":269.7165,"ARG_OF_PERICENTER":212.7621,"MEAN_ANOMALY":147.3481,"EPHEMERIS_TYPE":0,"NORAD_CAT_ID":66754,"ELEMENT_SET_NO":999,"REV_AT_EPOCH":3475,"BSTAR":0.000079503252,"MEAN_MOTION_DOT":0.00001578,"MEAN_MOTION_DDOT":0},{"OBJECT_NAME":"ICEYE-X62","OBJECT_ID":"2025-276CT","EPOCH":"2026-07-15T18:07:47.176896","CLASSIFICATION_TYPE":"U","MEAN_MOTION":15.10146432,"ECCENTRICITY":0.00008753,"INCLINATION":97.4198,"RA_OF_ASC_NODE":268.0683,"ARG_OF_PERICENTER":231.5661,"MEAN_ANOMALY":128.549,"EPHEMERIS_TYPE":0,"NORAD_CAT_ID":66755,"ELEMENT_SET_NO":999,"REV_AT_EPOCH":3464,"BSTAR":0.000077598831,"MEAN_MOTION_DOT":0.00001204,"MEAN_MOTION_DDOT":0},{"OBJECT_NAME":"ICEYE-X63","OBJECT_ID":"2026-004K","EPOCH":"2026-07-15T22:10:19.551360","CLASSIFICATION_TYPE":"U","MEAN_MOTION":14.88349766,"ECCENTRICITY":0.00053852,"INCLINATION":97.8015,"RA_OF_ASC_NODE":195.1156,"ARG_OF_PERICENTER":49.9834,"MEAN_ANOMALY":310.1855,"EPHEMERIS_TYPE":0,"NORAD_CAT_ID":67372,"ELEMENT_SET_NO":999,"REV_AT_EPOCH":2757,"BSTAR":0.00005273785,"MEAN_MOTION_DOT":0.00000434,"MEAN_MOTION_DDOT":0},{"OBJECT_NAME":"ICEYE-X64","OBJECT_ID":"2026-004L","EPOCH":"2026-07-15T23:20:43.358784","CLASSIFICATION_TYPE":"U","MEAN_MOTION":14.87988252,"ECCENTRICITY":0.00072099,"INCLINATION":97.8028,"RA_OF_ASC_NODE":195.0827,"ARG_OF_PERICENTER":51.9876,"MEAN_ANOMALY":308.1991,"EPHEMERIS_TYPE":0,"NORAD_CAT_ID":67373,"ELEMENT_SET_NO":999,"REV_AT_EPOCH":2757,"BSTAR":0.000071527557,"MEAN_MOTION_DOT":0.00000602,"MEAN_MOTION_DDOT":0},{"OBJECT_NAME":"ICEYE-X71","OBJECT_ID":"2026-067CG","EPOCH":"2026-07-14T08:41:36.635712","CLASSIFICATION_TYPE":"U","MEAN_MOTION":14.91790708,"ECCENTRICITY":0.00010685,"INCLINATION":97.7625,"RA_OF_ASC_NODE":153.1825,"ARG_OF_PERICENTER":349.9955,"MEAN_ANOMALY":10.1242,"EPHEMERIS_TYPE":0,"NORAD_CAT_ID":68494,"ELEMENT_SET_NO":999,"REV_AT_EPOCH":1577,"BSTAR":0.00015178176,"MEAN_MOTION_DOT":0.00001475,"MEAN_MOTION_DDOT":0},{"OBJECT_NAME":"ICEYE-X73","OBJECT_ID":"2026-067CJ","EPOCH":"2026-07-15T20:46:04.701216","CLASSIFICATION_TYPE":"U","MEAN_MOTION":14.92349998,"ECCENTRICITY":0.00015752,"INCLINATION":97.7622,"RA_OF_ASC_NODE":154.7493,"ARG_OF_PERICENTER":147.1787,"MEAN_ANOMALY":212.953,"EPHEMERIS_TYPE":0,"NORAD_CAT_ID":68496,"ELEMENT_SET_NO":999,"REV_AT_EPOCH":1600,"BSTAR":0.00009903828,"MEAN_MOTION_DOT":0.00000957,"MEAN_MOTION_DDOT":0},{"OBJECT_NAME":"ICEYE-X75","OBJECT_ID":"2026-067CK","EPOCH":"2026-07-15T20:52:38.860608","CLASSIFICATION_TYPE":"U","MEAN_MOTION":14.92174355,"ECCENTRICITY":0.00015128,"INCLINATION":97.7606,"RA_OF_ASC_NODE":154.7207,"ARG_OF_PERICENTER":143.9611,"MEAN_ANOMALY":216.1711,"EPHEMERIS_TYPE":0,"NORAD_CAT_ID":68497,"ELEMENT_SET_NO":999,"REV_AT_EPOCH":1600,"BSTAR":0.000035745598,"MEAN_MOTION_DOT":0.00000308,"MEAN_MOTION_DDOT":0},{"OBJECT_NAME":"ICEYE-X74","OBJECT_ID":"2026-067CN","EPOCH":"2026-07-15T10:25:46.197408","CLASSIFICATION_TYPE":"U","MEAN_MOTION":14.91793727,"ECCENTRICITY":0.00008098,"INCLINATION":97.7633,"RA_OF_ASC_NODE":154.2488,"ARG_OF_PERICENTER":341.6467,"MEAN_ANOMALY":18.4722,"EPHEMERIS_TYPE":0,"NORAD_CAT_ID":68500,"ELEMENT_SET_NO":999,"REV_AT_EPOCH":1593,"BSTAR":0.00014399556,"MEAN_MOTION_DOT":0.00001396,"MEAN_MOTION_DDOT":0},{"OBJECT_NAME":"ICEYE-X76","OBJECT_ID":"2026-067CQ","EPOCH":"2026-07-15T19:59:24.345024","CLASSIFICATION_TYPE":"U","MEAN_MOTION":14.91751586,"ECCENTRICITY":0.00005174,"INCLINATION":97.764,"RA_OF_ASC_NODE":154.6594,"ARG_OF_PERICENTER":310.0515,"MEAN_ANOMALY":50.0658,"EPHEMERIS_TYPE":0,"NORAD_CAT_ID":68502,"ELEMENT_SET_NO":999,"REV_AT_EPOCH":1599,"BSTAR":0.000070270824,"MEAN_MOTION_DOT":0.00000652,"MEAN_MOTION_DDOT":0}]}
