ICEYE-X53               
1 64584U 25135BJ  26196.89182758  .00001340  00000+0  11001-3 0  9998
2 64584  97.7360 313.5473 0001951 165.3135 194.8146 15.00894045 58380
ICEYE-X65               
1 66300U 25248H   26196.76948830  .00001535  00000+0  11438-3 0  9998
2 66300  45.4058 343.8797 0005577 202.3635 157.7004 15.07930450 39830
ICEYE-X66               
1 66301U 25248J   26196.76670793  .00001585  00000+0  11378-3 0  9997
2 66301  45.4025 342.9691 0005241 198.2073 161.8622 15.09179173 39825
ICEYE-X67               
1 66302U 25248K   26196.46042397  .00001599  00000+0  11472-3 0  9998
2 66302  45.4062 344.1616 0006701 196.7791 163.2870 15.09160092 39797
ICEYE-X58               
1 66751U 25276CP  26196.93900530  .00001369  00000+0  71987-4 0  9994
2 66751  97.4197 269.8023 0002216 209.5167 150.5942 15.17308920 34778
ICEYE-X59               
1 66752U 25276CQ  26196.74587162  .00002757  00000+0  22180-3 0  9998
2 66752  97.4391 266.8227 0001083 139.6643 220.4663 15.00756471 34554
ICEYE-X60               
1 66753U 25276CR  26196.19961492  .00002720  00000+0  16749-3 0  9994
2 66753  97.4235 268.0436 0000961 224.6352 135.4801 15.10812040 34593
ICEYE-X61               
1 66754U 25276CS  26196.75887336  .00001578  00000+0  79503-4 0  9999
2 66754  97.4194 269.7165 0002132 212.7621 147.3481 15.18610595 34757
ICEYE-X62               
1 66755U 25276CT  26196.75540714  .00001204  00000+0  77599-4 0  9995
2 66755  97.4198 268.0683 0000875 231.5661 128.5490 15.10146432 34649
ICEYE-X63               
1 67372U 26004K   26196.92383740  .00000434  00000+0  52738-4 0  9996
2 67372  97.8015 195.1156 0005385  49.9834 310.1855 14.88349766 27573
ICEYE-X64               
1 67373U 26004L   26196.97272406  .00000602  00000+0  71528-4 0  9993
2 67373  97.8028 195.0827 0007209  51.9876 308.1991 14.87988252 27574
ICEYE-X71               
1 68494U 26067CG  26195.36222958  .00001475  00000+0  15178-3 0  9993
2 68494  97.7625 153.1825 0001068 349.9955  10.1242 14.91790708 15779
ICEYE-X73               
1 68496U 26067CJ  26196.86533219  .00000957  00000+0  99038-4 0  9998
2 68496  97.7622 154.7493 0001575 147.1787 212.9530 14.92349998 16001
ICEYE-X75               
1 68497U 26067CK  26196.86989422  .00000308  00000+0  35746-4 0  9996
2 68497  97.7606 154.7207 0001512 143.9611 216.1711 14.92174355 16008
ICEYE-X74               
1 68500U 26067CN  26196.43456247  .00001396  00000+0  14400-3 0  9999
2 68500  97.7633 154.2488 0000809 341.6467  18.4722 14.91793727 15938
ICEYE-X76               
1 68502U 26067CQ  26196.83292066  .00000652  00000+0  70271-4 0  9995
2 68502  97.7640 154.6594 0000517 310.0515  50.0658 14.91751586 15993
